<?xml version="1.0" encoding="UTF-8"?>
<kml xmlns="http://www.opengis.net/kml/2.2" xmlns:gx="http://www.google.com/kml/ext/2.2">
    <Document id="547">
        <Style id="550">
            <IconStyle id="551">
                <colorMode>normal</colorMode>
                <scale>1</scale>
                <heading>0</heading>
                <Icon id="552">
                    <href>WindTurbineIcon.jpg</href>
                </Icon>
            </IconStyle>
        </Style>
        <Style id="555">
            <IconStyle id="556">
                <colorMode>normal</colorMode>
                <scale>1</scale>
                <heading>0</heading>
                <Icon id="557">
                    <href>WindTurbineIcon.jpg</href>
                </Icon>
            </IconStyle>
        </Style>
        <Style id="560">
            <IconStyle id="561">
                <colorMode>normal</colorMode>
                <scale>1</scale>
                <heading>0</heading>
                <Icon id="562">
                    <href>WindTurbineIcon.jpg</href>
                </Icon>
            </IconStyle>
        </Style>
        <Style id="565">
            <IconStyle id="566">
                <colorMode>normal</colorMode>
                <scale>1</scale>
                <heading>0</heading>
                <Icon id="567">
                    <href>WindTurbineIcon.jpg</href>
                </Icon>
            </IconStyle>
        </Style>
        <Style id="570">
            <IconStyle id="571">
                <colorMode>normal</colorMode>
                <scale>1</scale>
                <heading>0</heading>
                <Icon id="572">
                    <href>WindTurbineIcon.jpg</href>
                </Icon>
            </IconStyle>
        </Style>
        <Style id="575">
            <IconStyle id="576">
                <colorMode>normal</colorMode>
                <scale>1</scale>
                <heading>0</heading>
                <Icon id="577">
                    <href>WindTurbineIcon.jpg</href>
                </Icon>
            </IconStyle>
        </Style>
        <Style id="580">
            <IconStyle id="581">
                <colorMode>normal</colorMode>
                <scale>1</scale>
                <heading>0</heading>
                <Icon id="582">
                    <href>WindTurbineIcon.jpg</href>
                </Icon>
            </IconStyle>
        </Style>
        <Style id="585">
            <IconStyle id="586">
                <colorMode>normal</colorMode>
                <scale>1</scale>
                <heading>0</heading>
                <Icon id="587">
                    <href>WindTurbineIcon.jpg</href>
                </Icon>
            </IconStyle>
        </Style>
        <Style id="590">
            <IconStyle id="591">
                <colorMode>normal</colorMode>
                <scale>1</scale>
                <heading>0</heading>
                <Icon id="592">
                    <href>WindTurbineIcon.jpg</href>
                </Icon>
            </IconStyle>
        </Style>
        <Style id="595">
            <IconStyle id="596">
                <colorMode>normal</colorMode>
                <scale>1</scale>
                <heading>0</heading>
                <Icon id="597">
                    <href>WindTurbineIcon.jpg</href>
                </Icon>
            </IconStyle>
        </Style>
        <Style id="600">
            <IconStyle id="601">
                <colorMode>normal</colorMode>
                <scale>1</scale>
                <heading>0</heading>
                <Icon id="602">
                    <href>WindTurbineIcon.jpg</href>
                </Icon>
            </IconStyle>
        </Style>
        <Style id="605">
            <IconStyle id="606">
                <colorMode>normal</colorMode>
                <scale>1</scale>
                <heading>0</heading>
                <Icon id="607">
                    <href>WindTurbineIcon.jpg</href>
                </Icon>
            </IconStyle>
        </Style>
        <Style id="610">
            <IconStyle id="611">
                <colorMode>normal</colorMode>
                <scale>1</scale>
                <heading>0</heading>
                <Icon id="612">
                    <href>WindTurbineIcon.jpg</href>
                </Icon>
            </IconStyle>
        </Style>
        <Style id="615">
            <IconStyle id="616">
                <colorMode>normal</colorMode>
                <scale>1</scale>
                <heading>0</heading>
                <Icon id="617">
                    <href>WindTurbineIcon.jpg</href>
                </Icon>
            </IconStyle>
        </Style>
        <Style id="620">
            <IconStyle id="621">
                <colorMode>normal</colorMode>
                <scale>1</scale>
                <heading>0</heading>
                <Icon id="622">
                    <href>WindTurbineIcon.jpg</href>
                </Icon>
            </IconStyle>
        </Style>
        <Style id="625">
            <IconStyle id="626">
                <colorMode>normal</colorMode>
                <scale>1</scale>
                <heading>0</heading>
                <Icon id="627">
                    <href>WindTurbineIcon.jpg</href>
                </Icon>
            </IconStyle>
        </Style>
        <Style id="630">
            <IconStyle id="631">
                <colorMode>normal</colorMode>
                <scale>1</scale>
                <heading>0</heading>
                <Icon id="632">
                    <href>WindTurbineIcon.jpg</href>
                </Icon>
            </IconStyle>
        </Style>
        <Style id="635">
            <IconStyle id="636">
                <colorMode>normal</colorMode>
                <scale>1</scale>
                <heading>0</heading>
                <Icon id="637">
                    <href>WindTurbineIcon.jpg</href>
                </Icon>
            </IconStyle>
        </Style>
        <Style id="640">
            <IconStyle id="641">
                <colorMode>normal</colorMode>
                <scale>1</scale>
                <heading>0</heading>
                <Icon id="642">
                    <href>WindTurbineIcon.jpg</href>
                </Icon>
            </IconStyle>
        </Style>
        <Style id="645">
            <IconStyle id="646">
                <colorMode>normal</colorMode>
                <scale>1</scale>
                <heading>0</heading>
                <Icon id="647">
                    <href>WindTurbineIcon.jpg</href>
                </Icon>
            </IconStyle>
        </Style>
        <Style id="650">
            <LineStyle id="651">
                <color>0000FF</color>
                <colorMode>normal</colorMode>
                <width>2</width>
            </LineStyle>
        </Style>
        <Style id="654">
            <LineStyle id="655">
                <color>FF0000</color>
                <colorMode>normal</colorMode>
                <width>2</width>
            </LineStyle>
        </Style>
        <Style id="658">
            <LineStyle id="659">
                <color>FF0000</color>
                <colorMode>normal</colorMode>
                <width>2</width>
            </LineStyle>
        </Style>
        <Style id="662">
            <LineStyle id="663">
                <color>0000FF</color>
                <colorMode>normal</colorMode>
                <width>2</width>
            </LineStyle>
        </Style>
        <Style id="666">
            <LineStyle id="667">
                <color>FF0000</color>
                <colorMode>normal</colorMode>
                <width>2</width>
            </LineStyle>
        </Style>
        <Style id="670">
            <LineStyle id="671">
                <color>FF0000</color>
                <colorMode>normal</colorMode>
                <width>2</width>
            </LineStyle>
        </Style>
        <Style id="674">
            <LineStyle id="675">
                <color>FF0000</color>
                <colorMode>normal</colorMode>
                <width>2</width>
            </LineStyle>
        </Style>
        <Style id="678">
            <LineStyle id="679">
                <color>FF0000</color>
                <colorMode>normal</colorMode>
                <width>2</width>
            </LineStyle>
        </Style>
        <Style id="682">
            <LineStyle id="683">
                <color>FF0000</color>
                <colorMode>normal</colorMode>
                <width>2</width>
            </LineStyle>
        </Style>
        <Style id="686">
            <LineStyle id="687">
                <color>FF0000</color>
                <colorMode>normal</colorMode>
                <width>2</width>
            </LineStyle>
        </Style>
        <Style id="690">
            <LineStyle id="691">
                <color>FF0000</color>
                <colorMode>normal</colorMode>
                <width>2</width>
            </LineStyle>
        </Style>
        <Style id="694">
            <LineStyle id="695">
                <color>FF0000</color>
                <colorMode>normal</colorMode>
                <width>2</width>
            </LineStyle>
        </Style>
        <Style id="698">
            <LineStyle id="699">
                <color>FF0000</color>
                <colorMode>normal</colorMode>
                <width>2</width>
            </LineStyle>
        </Style>
        <Style id="702">
            <LineStyle id="703">
                <color>FF0000</color>
                <colorMode>normal</colorMode>
                <width>2</width>
            </LineStyle>
        </Style>
        <Style id="706">
            <LineStyle id="707">
                <color>FF0000</color>
                <colorMode>normal</colorMode>
                <width>2</width>
            </LineStyle>
        </Style>
        <Style id="710">
            <LineStyle id="711">
                <color>FF0000</color>
                <colorMode>normal</colorMode>
                <width>2</width>
            </LineStyle>
        </Style>
        <Style id="714">
            <LineStyle id="715">
                <color>FF0000</color>
                <colorMode>normal</colorMode>
                <width>2</width>
            </LineStyle>
        </Style>
        <Style id="718">
            <LineStyle id="719">
                <color>FF0000</color>
                <colorMode>normal</colorMode>
                <width>2</width>
            </LineStyle>
        </Style>
        <Style id="722">
            <LineStyle id="723">
                <color>FF0000</color>
                <colorMode>normal</colorMode>
                <width>2</width>
            </LineStyle>
        </Style>
        <Style id="726">
            <LineStyle id="727">
                <color>FF0000</color>
                <colorMode>normal</colorMode>
                <width>2</width>
            </LineStyle>
        </Style>
        <Placemark id="549">
            <name>Turbine 1</name>
            <styleUrl>#550</styleUrl>
            <Point id="548">
                <coordinates>-2.064687803640474,56.82262164553007,0.0</coordinates>
            </Point>
        </Placemark>
        <Placemark id="554">
            <name>Turbine 2</name>
            <styleUrl>#555</styleUrl>
            <Point id="553">
                <coordinates>-2.0575926896008627,56.81279239224183,0.0</coordinates>
            </Point>
        </Placemark>
        <Placemark id="559">
            <name>Turbine 3</name>
            <styleUrl>#560</styleUrl>
            <Point id="558">
                <coordinates>-2.0418277880763016,56.813828301705804,0.0</coordinates>
            </Point>
        </Placemark>
        <Placemark id="564">
            <name>Turbine 4</name>
            <styleUrl>#565</styleUrl>
            <Point id="563">
                <coordinates>-2.017684372122001,56.817615666068924,0.0</coordinates>
            </Point>
        </Placemark>
        <Placemark id="569">
            <name>Turbine 5</name>
            <styleUrl>#570</styleUrl>
            <Point id="568">
                <coordinates>-2.003825713749254,56.815774632224624,0.0</coordinates>
            </Point>
        </Placemark>
        <Placemark id="574">
            <name>Turbine 6</name>
            <styleUrl>#575</styleUrl>
            <Point id="573">
                <coordinates>-1.990787347571795,56.80968235031377,0.0</coordinates>
            </Point>
        </Placemark>
        <Placemark id="579">
            <name>Turbine 7</name>
            <styleUrl>#580</styleUrl>
            <Point id="578">
                <coordinates>-1.9798584136093789,56.80560687413115,0.0</coordinates>
            </Point>
        </Placemark>
        <Placemark id="584">
            <name>Turbine 8</name>
            <styleUrl>#585</styleUrl>
            <Point id="583">
                <coordinates>-1.9606614080756721,56.82434967209416,0.0</coordinates>
            </Point>
        </Placemark>
        <Placemark id="589">
            <name>Turbine 9</name>
            <styleUrl>#590</styleUrl>
            <Point id="588">
                <coordinates>-2.0542062677469306,56.83643154033052,0.0</coordinates>
            </Point>
        </Placemark>
        <Placemark id="594">
            <name>Turbine 10</name>
            <styleUrl>#595</styleUrl>
            <Point id="593">
                <coordinates>-2.040997574564677,56.83694001267635,0.0</coordinates>
            </Point>
        </Placemark>
        <Placemark id="599">
            <name>Turbine 11</name>
            <styleUrl>#600</styleUrl>
            <Point id="598">
                <coordinates>-2.0275233186593624,56.83610668353446,0.0</coordinates>
            </Point>
        </Placemark>
        <Placemark id="604">
            <name>Turbine 12</name>
            <styleUrl>#605</styleUrl>
            <Point id="603">
                <coordinates>-2.012307320382822,56.83658601185776,0.0</coordinates>
            </Point>
        </Placemark>
        <Placemark id="609">
            <name>Turbine 13</name>
            <styleUrl>#610</styleUrl>
            <Point id="608">
                <coordinates>-1.9989316574280023,56.83135152940486,0.0</coordinates>
            </Point>
        </Placemark>
        <Placemark id="614">
            <name>Turbine 14</name>
            <styleUrl>#615</styleUrl>
            <Point id="613">
                <coordinates>-1.9786753286872583,56.83331517952933,0.0</coordinates>
            </Point>
        </Placemark>
        <Placemark id="619">
            <name>Turbine 15</name>
            <styleUrl>#620</styleUrl>
            <Point id="618">
                <coordinates>-1.9602730268235211,56.83424841614943,0.0</coordinates>
            </Point>
        </Placemark>
        <Placemark id="624">
            <name>Turbine 16</name>
            <styleUrl>#625</styleUrl>
            <Point id="623">
                <coordinates>-2.0378724292560566,56.85793181597455,0.0</coordinates>
            </Point>
        </Placemark>
        <Placemark id="629">
            <name>Turbine 17</name>
            <styleUrl>#630</styleUrl>
            <Point id="628">
                <coordinates>-2.017526694864016,56.859384639771754,0.0</coordinates>
            </Point>
        </Placemark>
        <Placemark id="634">
            <name>Turbine 18</name>
            <styleUrl>#635</styleUrl>
            <Point id="633">
                <coordinates>-1.9909838743442239,56.860819179302354,0.0</coordinates>
            </Point>
        </Placemark>
        <Placemark id="639">
            <name>Turbine 19</name>
            <styleUrl>#640</styleUrl>
            <Point id="638">
                <coordinates>-2.0253640000006,56.874379999999995,0.0</coordinates>
            </Point>
        </Placemark>
        <Placemark id="644">
            <name>Turbine 20</name>
            <styleUrl>#645</styleUrl>
            <Point id="643">
                <coordinates>-2.006181641791511,56.875565943479835,0.0</coordinates>
            </Point>
        </Placemark>
        <Placemark id="649">
            <name>Cable(0, -1)</name>
            <styleUrl>#650</styleUrl>
            <LineString id="648">
                <coordinates>-2.064687803640474,56.82262164553007,0.0 -2.056542413149161,56.83488618616155,0.0</coordinates>
            </LineString>
        </Placemark>
        <Placemark id="653">
            <name>Cable(0, 1)</name>
            <styleUrl>#654</styleUrl>
            <LineString id="652">
                <coordinates>-2.064687803640474,56.82262164553007,0.0 -2.0575926896008627,56.81279239224183,0.0</coordinates>
            </LineString>
        </Placemark>
        <Placemark id="657">
            <name>Cable(-1, 8)</name>
            <styleUrl>#658</styleUrl>
            <LineString id="656">
                <coordinates>-2.056542413149161,56.83488618616155,0.0 -2.0542062677469306,56.83643154033052,0.0</coordinates>
            </LineString>
        </Placemark>
        <Placemark id="661">
            <name>Cable(-1, 9)</name>
            <styleUrl>#662</styleUrl>
            <LineString id="660">
                <coordinates>-2.056542413149161,56.83488618616155,0.0 -2.040997574564677,56.83694001267635,0.0</coordinates>
            </LineString>
        </Placemark>
        <Placemark id="665">
            <name>Cable(1, 2)</name>
            <styleUrl>#666</styleUrl>
            <LineString id="664">
                <coordinates>-2.0575926896008627,56.81279239224183,0.0 -2.0418277880763016,56.813828301705804,0.0</coordinates>
            </LineString>
        </Placemark>
        <Placemark id="669">
            <name>Cable(2, 3)</name>
            <styleUrl>#670</styleUrl>
            <LineString id="668">
                <coordinates>-2.0418277880763016,56.813828301705804,0.0 -2.017684372122001,56.817615666068924,0.0</coordinates>
            </LineString>
        </Placemark>
        <Placemark id="673">
            <name>Cable(3, 4)</name>
            <styleUrl>#674</styleUrl>
            <LineString id="672">
                <coordinates>-2.017684372122001,56.817615666068924,0.0 -2.003825713749254,56.815774632224624,0.0</coordinates>
            </LineString>
        </Placemark>
        <Placemark id="677">
            <name>Cable(4, 5)</name>
            <styleUrl>#678</styleUrl>
            <LineString id="676">
                <coordinates>-2.003825713749254,56.815774632224624,0.0 -1.990787347571795,56.80968235031377,0.0</coordinates>
            </LineString>
        </Placemark>
        <Placemark id="681">
            <name>Cable(5, 6)</name>
            <styleUrl>#682</styleUrl>
            <LineString id="680">
                <coordinates>-1.990787347571795,56.80968235031377,0.0 -1.9798584136093789,56.80560687413115,0.0</coordinates>
            </LineString>
        </Placemark>
        <Placemark id="685">
            <name>Cable(7, 14)</name>
            <styleUrl>#686</styleUrl>
            <LineString id="684">
                <coordinates>-1.9606614080756721,56.82434967209416,0.0 -1.9602730268235211,56.83424841614943,0.0</coordinates>
            </LineString>
        </Placemark>
        <Placemark id="689">
            <name>Cable(8, 15)</name>
            <styleUrl>#690</styleUrl>
            <LineString id="688">
                <coordinates>-2.0542062677469306,56.83643154033052,0.0 -2.0378724292560566,56.85793181597455,0.0</coordinates>
            </LineString>
        </Placemark>
        <Placemark id="693">
            <name>Cable(9, 10)</name>
            <styleUrl>#694</styleUrl>
            <LineString id="692">
                <coordinates>-2.040997574564677,56.83694001267635,0.0 -2.0275233186593624,56.83610668353446,0.0</coordinates>
            </LineString>
        </Placemark>
        <Placemark id="697">
            <name>Cable(10, 11)</name>
            <styleUrl>#698</styleUrl>
            <LineString id="696">
                <coordinates>-2.0275233186593624,56.83610668353446,0.0 -2.012307320382822,56.83658601185776,0.0</coordinates>
            </LineString>
        </Placemark>
        <Placemark id="701">
            <name>Cable(11, 12)</name>
            <styleUrl>#702</styleUrl>
            <LineString id="700">
                <coordinates>-2.012307320382822,56.83658601185776,0.0 -1.9989316574280023,56.83135152940486,0.0</coordinates>
            </LineString>
        </Placemark>
        <Placemark id="705">
            <name>Cable(12, 13)</name>
            <styleUrl>#706</styleUrl>
            <LineString id="704">
                <coordinates>-1.9989316574280023,56.83135152940486,0.0 -1.9786753286872583,56.83331517952933,0.0</coordinates>
            </LineString>
        </Placemark>
        <Placemark id="709">
            <name>Cable(13, 14)</name>
            <styleUrl>#710</styleUrl>
            <LineString id="708">
                <coordinates>-1.9786753286872583,56.83331517952933,0.0 -1.9602730268235211,56.83424841614943,0.0</coordinates>
            </LineString>
        </Placemark>
        <Placemark id="713">
            <name>Cable(15, 16)</name>
            <styleUrl>#714</styleUrl>
            <LineString id="712">
                <coordinates>-2.0378724292560566,56.85793181597455,0.0 -2.017526694864016,56.859384639771754,0.0</coordinates>
            </LineString>
        </Placemark>
        <Placemark id="717">
            <name>Cable(16, 18)</name>
            <styleUrl>#718</styleUrl>
            <LineString id="716">
                <coordinates>-2.017526694864016,56.859384639771754,0.0 -2.0253640000006,56.874379999999995,0.0</coordinates>
            </LineString>
        </Placemark>
        <Placemark id="721">
            <name>Cable(16, 17)</name>
            <styleUrl>#722</styleUrl>
            <LineString id="720">
                <coordinates>-2.017526694864016,56.859384639771754,0.0 -1.9909838743442239,56.860819179302354,0.0</coordinates>
            </LineString>
        </Placemark>
        <Placemark id="725">
            <name>Cable(18, 19)</name>
            <styleUrl>#726</styleUrl>
            <LineString id="724">
                <coordinates>-2.0253640000006,56.874379999999995,0.0 -2.006181641791511,56.875565943479835,0.0</coordinates>
            </LineString>
        </Placemark>
    </Document>
</kml>
